[{"OBJECT_NAME":"STARLINK-2624","OBJECT_ID":"2021-038F","EPOCH":"2026-03-09T05:44:57.836256","MEAN_MOTION":15.30187215,"ECCENTRICITY":0.00011863,"INCLINATION":53.162,"RA_OF_ASC_NODE":0.2505,"ARG_OF_PERICENTER":92.5071,"MEAN_ANOMALY":267.6066,"EPHEMERIS_TYPE":0,"CLASSIFICATION_TYPE":"U","NORAD_CAT_ID":48358,"ELEMENT_SET_NO":999,"REV_AT_EPOCH":26700,"BSTAR":-0.00012628578,"MEAN_MOTION_DOT":-4.096e-5,"MEAN_MOTION_DDOT":0},{"OBJECT_NAME":"CSTP 1.2 (STC 1.2)","OBJECT_ID":"2023-091W","EPOCH":"2026-03-09T23:12:27.821952","MEAN_MOTION":15.2718076,"ECCENTRICITY":0.00204388,"INCLINATION":97.5258,"RA_OF_ASC_NODE":134.3262,"ARG_OF_PERICENTER":84.9592,"MEAN_ANOMALY":275.3979,"EPHEMERIS_TYPE":0,"CLASSIFICATION_TYPE":"U","NORAD_CAT_ID":57186,"ELEMENT_SET_NO":999,"REV_AT_EPOCH":14930,"BSTAR":0.00043035718,"MEAN_MOTION_DOT":0.00011466,"MEAN_MOTION_DDOT":0}]
